#aV2006 12 31  0  0   .00000000      96 DD+AD WGS84 FIT  NGA
## 1408       .00000000   900.00000000 54100  .0000000000000
+   30     1  2  3  4  5  6  7  8  9 10 11 12 13 14 16 17 18
+         19 20 21 22 23 24 25 26 27 28 29 30 31  0  0  0  0
+          0  0  0  0  0  0  0  0  0  0  0  0  0  0  0  0  0
+          0  0  0  0  0  0  0  0  0  0  0  0  0  0  0  0  0
+          0  0  0  0  0  0  0  0  0  0  0  0  0  0  0  0  0
++         0  0  0  0  0  0  0  0  0  0  0  0  0  0  0  0  0
++         0  0  0  0  0  0  0  0  0  0  0  0  0  0  0  0  0
++         0  0  0  0  0  0  0  0  0  0  0  0  0  0  0  0  0
++         0  0  0  0  0  0  0  0  0  0  0  0  0  0  0  0  0
++         0  0  0  0  0  0  0  0  0  0  0  0  0  0  0  0  0
%c cc cc ccc ccc cccc cccc cccc cccc ccccc ccccc ccccc ccccc
%c cc cc ccc ccc cccc cccc cccc cccc ccccc ccccc ccccc ccccc
%f  0.0000000  0.000000000  0.00000000000  0.000000000000000
%f  0.0000000  0.000000000  0.00000000000  0.000000000000000
%i    0    0    0    0      0      0      0      0         0
%i    0    0    0    0      0      0      0      0         0
/*      NGA, ST. LOUIS,MO.                                  
/*   EPHEMERIS COMPUTED FROM  3 DAYS OF DATA                
/* CCCCCCCCCCCCCCCCCCCCCCCCCCCCCCCCCCCCCCCCCCCCCCCCCCCCCCCCC
/* CCCCCCCCCCCCCCCCCCCCCCCCCCCCCCCCCCCCCCCCCCCCCCCCCCCCCCCCC
*  2006 12 31 17  0   .00000000                                                 
P  1  19822.359503  14904.496757   9804.584605     98.639518                    
V  1 -11823.218623  -3002.768308  29027.661981       .023648                    
P  2 -13499.915992 -18790.823549 -13497.776681     69.063301                    
V  2   -921.370681 -16815.866241  24521.896406       .035005                    
P  3  23143.360416  11342.476209  -7286.599567    516.529753                    
V  3  -9509.182151   1147.914229 -28893.015911       .735358                    
P  4  -5514.512715 -25739.504214  -1453.067089    350.904701                    
V  4   3189.715608  -2378.864920  31624.171793       .030377                    
P  5 -21553.414881  11383.116010  10142.672998    454.165136                    
V  5   6985.994109 -11777.642050  27592.978183       .171506                    
P  6 -15693.699622   9784.259598 -18895.940474    481.628282                    
V  6 -22856.915369  -8891.817708  14186.091589      -.206527                    
P  7 -10288.429440  12824.506888 -20497.031757    459.335536                    
V  7 -25692.326578  -8211.632497   7559.372536      -.102013                    
P  8   2175.319539 -24904.577102  -8415.445933    -91.668110                    
V  8   3946.601625  10164.040257 -29913.541690      -.014597                    
P  9 -15223.539309   -556.263663  21205.650524     51.138853                    
V  9  -5959.876621 -27628.798885  -4640.771598       .015369                    
P 10 -15320.031388  -6009.673978 -21016.694117     95.202040                    
V 10  20003.867155 -17158.126848  -9407.949468       .006025                    
P 11  16349.300796  -3307.446627  20591.085662      1.775421                    
V 11   8755.600934  25172.867575  -2607.677675       .015230                    
P 12 -22405.191024   9613.852656  10597.822226    -73.061262                    
V 12   8450.899579 -10580.667487  27774.162851       .080861                    
P 13  13163.622864  -9617.877547 -21046.346654    128.018700                    
V 13  24458.859391  10071.493164  10781.959684       .039115                    
P 14   5448.879083  16322.031877  20337.514894      3.285870                    
V 14 -24217.781074  -8155.624487  13020.269006       .011639                    
P 16  10829.807008  10635.381785 -21718.933746    107.583992                    
V 16 -21195.865055  17924.803296  -1662.137078       .039374                    
P 17  -5520.585358 -16751.704034  19887.657891     84.206257                    
V 17  24152.717148   7395.859072  12815.801823      -.013822                    
P 18 -15944.560353  19599.983645   7770.964968   -253.776863                    
V 18  -9556.262934   3688.048224 -29721.274319      -.001246                    
P 19  25206.565378   7563.916488   4033.551980     51.167664                    
V 19   3513.049035   4518.358302 -31068.314020       .044498                    
P 20  22222.121952 -12109.619741   7901.217575    -21.891474                    
V 20  -5751.710457   8866.062240  29465.214611      -.000501                    
P 21  -6547.429754  21636.055113 -13393.520190     66.935029                    
V 21  -5708.918205 -16755.863431 -24660.404738       .012667                    
P 22  -5254.026885  19626.321088  17258.547592    159.255798                    
V 22 -18201.844727  11835.437303 -19196.793385       .023942                    
P 23  22386.859540  -2553.133650 -14293.808415    144.424406                    
V 23  16329.240024   7593.977900  24163.850583       .012197                    
P 24 -14953.047914 -10352.334096 -19078.816214     64.692914                    
V 24  -1785.164337 -24704.842023  14949.644841       .032349                    
P 25  11053.029896  23199.612822  -5958.113094    394.255260                    
V 25   -650.149102   8643.500453  30557.624167      -.081458                    
P 26 -25408.050360  -8426.722344   1969.652256    -72.602281                    
V 26  -2265.803421  -2351.231426 -31911.953855      -.173646                    
P 27   6394.479417 -19703.362573 -15828.614128     86.101508                    
V 27   7423.839310  20183.744085 -21563.560822       .020203                    
P 28   8501.960500 -20390.720571  14788.133777     10.656415                    
V 28  15600.527541  -9980.849995 -23564.540192      -.009605                    
P 29 -24823.036040  -9765.196191  -1686.545892    291.605009                    
V 29   2811.716119   -802.078421 -32030.638381       .193120                    
P 30 -19046.652825  18416.683196   -783.531798     21.172409                    
V 30  -2778.220364  -2055.899837  31465.132517       .011211                    
P 31   7761.557367  25004.655149  -4118.201964    -11.559827                    
V 31  -1746.504980   5919.496647  31208.117761       .063594                    
EOF
